COSMOS 2425 (716)       
1 29670U 06062A   21035.23313234  .00000064  00000-0  00000-0 0  9990
2 29670  64.8806 259.9518 0024614 348.9470 194.0302  2.13107654109838
COSMOS 2433 (720)       
1 32275U 07052A   21039.30479647 -.00000050  00000-0  00000+0 0  9993
2 32275  66.0408  21.0749 0005181 264.8706 341.2258  2.13104286103439
COSMOS 2432 (719)       
1 32276U 07052B   21039.11805365 -.00000049  00000-0  00000+0 0  9991
2 32276  66.0531  21.1737 0012069 319.6972  92.7170  2.13103598103438
COSMOS 2434 (721)       
1 32393U 07065A   21038.62995742  .00000085  00000-0  00000-0 0  9999
2 32393  64.4956 258.3543 0004519  74.5837 261.8280  2.13103116102120
COSMOS 2436 (723)       
1 32395U 07065C   21038.58678479  .00000085  00000-0  00000-0 0  9991
2 32395  64.5041 258.4092 0016108   5.6461  73.7953  2.13103027102064
COSMOS 2456 (730)       
1 36111U 09070A   21038.58648567 -.00000035  00000-0  00000-0 0  9990
2 36111  64.2562 138.0359 0002991 320.7248 154.6087  2.13099175 86793
COSMOS 2457 (733)       
1 36112U 09070B   21039.28152706 -.00000037  00000-0  00000+0 0  9995
2 36112  64.2393 137.9003 0005844 160.9717 250.9160  2.13101429 86816
COSMOS 2459 (731)       
1 36400U 10007A   21039.40233438 -.00000053  00000-0  00000+0 0  9991
2 36400  65.9393  20.0131 0026301 344.1840 192.9163  2.13105147 85157
COSMOS 2461 (735)       
1 36401U 10007B   21039.13063350 -.00000051  00000-0  00000+0 0  9994
2 36401  65.9351  19.9857 0020438 359.2622 331.3020  2.13103835 85157
COSMOS 2460 (732)       
1 36402U 10007C   21038.62783503 -.00000047  00000-0  00000-0 0  9993
2 36402  65.9223  19.9636 0002560 285.7685 322.5800  2.13106636 85148
COSMOS 2464 (736)       
1 37139U 10041C   21039.08899537  .00000085  00000-0  00000+0 0  9995
2 37139  64.0955 257.6601 0028980  13.0057 177.4426  2.13100812 81215
COSMOS 2471 (701K)      
1 37372U 11009A   21038.78612109 -.00000049  00000-0  00000-0 0  9995
2 37372  65.9176  19.8953 0010148 236.8499 296.5214  2.13107469 77420
COSMOS 2476 (744)       
1 37867U 11064A   21038.57922006 -.00000035  00000-0  00000+0 0  9996
2 37867  64.5533 139.1979 0019796 234.7766 136.2059  2.13101884 72143
COSMOS 2477 (745)       
1 37868U 11064B   21038.69074098 -.00000035  00000-0  00000-0 0  9990
2 37868  64.5609 139.2534 0017299 235.6254  39.3058  2.13101724 72093
COSMOS 2475 (743)       
1 37869U 11064C   21039.46804882 -.00000036  00000-0  00000+0 0  9999
2 37869  64.5677 139.2311 0021011 257.3104 211.5324  2.13101783 72123
COSMOS 2485 (747)       
1 39155U 13019A   21038.65440253 -.00000035  00000-0  00000-0 0  9999
2 39155  64.7201 139.5157 0020503 230.5056 242.6644  2.13101826 60612
COSMOS 2492 (754)       
1 39620U 14012A   21038.73839544 -.00000049  00000-0  00000-0 0  9999
2 39620  65.8116  19.7088 0015406 318.8765 253.6435  2.13103060 53569
COSMOS 2500 (755)       
1 40001U 14032A   21038.86523329 -.00000050  00000-0  00000-0 0  9993
2 40001  65.7504  19.6021 0007192 225.5547 304.2138  2.13102566 51780
COSMOS 2501 (702K)      
1 40315U 14075A   21038.84109442  .00000083  00000-0  00000-0 0  9997
2 40315  63.8085 258.5269 0015431 207.9518 109.1618  2.13100279 48180
COSMOS 2514 (751)       
1 41330U 16008A   21038.70158405 -.00000050  00000-0  00000-0 0  9996
2 41330  65.5535  19.4230 0011140 227.1222   0.0017  2.13102996 38941
COSMOS 2516 (753)       
1 41554U 16032A   21039.06451087  .00000083  00000-0  00000+0 0  9997
2 41554  64.0327 258.6556 0011335 216.3554 181.6640  2.13106842 36562
COSMOS 2522 (752)       
1 42939U 17055A   21038.74255632  .00000084  00000-0  00000-0 0  9995
2 42939  64.2674 258.9176 0005514 254.8514 121.6338  2.13102092 26316
COSMOS 2527 (756)       
1 43508U 18053A   21039.54867052 -.00000036  00000-0  00000+0 0  9998
2 43508  64.8860 139.3837 0007386 224.6356  82.2725  2.13102587 20614
COSMOS 2529 (757)       
1 43687U 18086A   21039.43369977  .00000083  00000-0  00000+0 0  9994
2 43687  64.4808 259.0760 0008384 280.8478 221.4194  2.13102193 17631
COSMOS 2534 (758)       
1 44299U 19030A   21039.53417858  .00000083  00000-0  00000+0 0  9997
2 44299  64.5483 258.9108 0011881 298.8093  55.4366  2.13101962 13278
COSMOS 2544 (759)       
1 44850U 19088A   21039.55325253 -.00000036  00000-0  00000+0 0  9991
2 44850  64.8690 139.2453 0010950 260.1936  94.0990  2.13102349  9055
COSMOS 2545 (760)       
1 45358U 20018A   21039.44689049 -.00000055  00000-0  00000+0 0  9995
2 45358  64.8852  20.4153 0011200 258.1448 224.7354  2.13102828  7002
